{
  "norad_id": 63112,
  "name": "STARLINK-11590 [DTC]",
  "history": [
    {
      "epoch": "2026-03-28T18:49:24.029760",
      "apogee_km": 357.0868106074613,
      "perigee_km": 355.45654495474446,
      "latitude_deg": 35.834204696723525,
      "longitude_deg": -153.50663360022008,
      "semi_major_axis_km": 6734.408677781103,
      "eccentricity": 0.00012104,
      "inclination_deg": 43.0033,
      "raan_deg": 122.1875,
      "arg_perigee_deg": 14.7381,
      "mean_anomaly_deg": 345.3522,
      "mean_motion_rev_day": 15.70918159
    }
  ]
}