{"fetched_at":"2026-03-29T16:36:15Z","count":15609,"tles":[{"name":"STARLINK-11590 [DTC]","line1":"1 63112U 25039J   26087.78430590  .00270887  00000+0  20398-2 0  9996","line2":"2 63112  43.0033 122.1875 0001210  14.7381 345.3522 15.70918159 62617","category":"Starlink"}]}